context,name,address,lat,lng
kokoron,県立歴史博物館,〒670-0012　兵庫県姫路市本町68番地,,
kokoron,県立フラワーセンター,〒679-0187 兵庫県加西市豊倉町飯森1282-1,34.9077572,134.8593676
kokoron,県立播磨中央公園四季の庭,〒679-0212 兵庫県加東市下滝野 1275-8,,
kokoron,湊川神社宝物殿,〒650-0015　兵庫県神戸市中央区多聞通3-1-1,,
kokoron,長田神社宝物庫,〒653-0812　神戸市長田区長田町３丁目１－１,,
kokoron,須磨寺宝物館,〒654-0071 兵庫県神戸市須磨区須磨寺町4丁目6-8,,
kokoron,孫文記念館（移情閣）,〒655-0047 兵庫県神戸市垂水区東舞子町2051番地,,
kokoron,最明寺郷土館,神戸市西区神出町東828,,
kokoron,神戸ロボット工房（ロボット展示室）,〒653-0042 神戸市長田区二葉町7丁目1番18号 地域人材支援センター１F,,
kokoron,尼崎市総合文化センター美術ホール,〒660-0881 兵庫県尼崎市昭和通2丁目7-16,,
kokoron,白鷹禄水苑（暮らしの展示室、白鷹集古館）,〒662-0926 西宮市鞍掛町5-1,,
kokoron,宝塚文化創造館「すみれ♪ミュージアム」,〒665-0844　宝塚市武庫川町6-12,,
kokoron,宝塚市立宝塚文化創造館「すみれ♪ミュージアム」,〒665-0844　宝塚市武庫川町6-12,,
kokoron,生活協同組合コープこうべ協同学苑史料館,〒673-0592　兵庫県三木市志染町青山7丁目1-4,,
kokoron,姫路市立美術館（常設展のみ対象）,〒670-0012 姫路市本町68-25,,
kokoron,姫路文学館（常設展のみ対象）,姫路市山野井町84,,
kokoron,名古山霊園仏舎利塔,〒670-0051　兵庫県姫路市名古山町14番1号,,
kokoron,姫路市宿泊型児童館「星の子館」（宿泊対象外）,〒671-2222 兵庫県姫路市青山1470-24,,
kokoron,赤穂市立有年考古館,〒678-1181 赤穂市有年楢原1164番地1,,
kokoron,大石神社義士資料館,〒678-0235　兵庫県赤穂市上仮屋131-7,,
kokoron,花岳寺宝物館・義士木像堂,〒678-0239 兵庫県赤穂市加里屋1992番地,,
kokoron,山崎歴史郷土館,〒671-2576 兵庫県宍粟市山崎町鹿沢81 市立図書館2階,,
kokoron,豊岡市立竹野北前館,兵庫県豊岡市竹野町竹野50-12,,
kokoron,豊岡市立住吉屋歴史資料館,豊岡市竹野町竹野４２２,,
kokoron,豊岡市立加藤弘之生家,豊岡市出石町下谷１０番地の１,,
kokoron,養父市立木彫展示館,兵庫県養父市大屋町大杉826,,
kokoron,あさご芸術の森美術館―淀井敏夫記念館―,〒679－3423　兵庫県朝来市多々良木739－3,,
kokoron,朝来市埋蔵文化財センター「古代あさご館」,〒669-5153　朝来市山東町大月91番地2,,
kokoron,朝来市情報館天空の城,兵庫県朝来市和田山町竹田363番地（旧木村酒造場EN内）,,
kokoron,朝来市情報館　天空の城,兵庫県朝来市和田山町竹田363番地（旧木村酒造場EN内）,,
kokoron,朝来市旧生野鉱山職員宿舎（志村喬記念館）,〒679-3301　兵庫県朝来市生野町口銀谷６９７番地１,,
kokoron,香美町立小代古代体験の森,香美町小代区広井８０４,,
kokoron,丹波市立青垣歴史民俗資料館,〒669-3811 兵庫県丹波市青垣町佐治114,,
kokoron,丹波市立春日歴史民俗資料館,兵庫県丹波市春日町黒井496-2,,
kokoron,丹波市立市島民俗資料館,〒669-4322 兵庫県丹波市市島町上田1134,,
kokoron,県立考古博物館,〒675-0142 兵庫県加古郡播磨町大中1-1-1,,
kokoron,豪農の館　コヤノ美術館（西脇館）,兵庫県西脇市市原町139番地,,
kokoron,石の博物館　松内ミネラルコレクション,多可郡多可町中区中村町260,,
kokoron,五百羅漢（羅漢寺）,兵庫県加西市北条町北条1293,,
kokoron,「昔の酒蔵」沢の鶴資料館,〒657-0852 神戸市灘区大石南町1丁目29番1号,,
kokoron,神戸ファッション美術館,〒658-0032 神戸市東灘区向洋町中2-9-1,34.688333,135.270639
kokoron,美味伝承甲南漬資料館,〒658-0044 神戸市東灘区御影塚町4丁目4-8,,
kokoron,ＵＣＣコーヒー博物館,〒650-0046　神戸市中央区港島中町6丁目6-2,,
kokoron,神戸華僑歴史博物館,〒650-0024　兵庫県神戸市中央区海岸通3-1-1 KCCビル（神戸中華総商会ビル）2F,,
kokoron,長福寺考古資料館,神戸市西区押部谷養田369,,
kokoron,日本盛　酒蔵通り煉瓦館,〒662-0921 西宮市用海町4番28号,,
kokoron,白鹿記念酒造博物館,〒662-0926　兵庫県西宮市鞍掛町8-21,,
kokoron,柿衛文庫,〒664-0895　伊丹市宮ノ前2-5-20,,
kokoron,稲美町立郷土資料館,〒675-1115　兵庫県加古郡稲美町国岡1-1,,
kokoron,民音音楽博物館　西日本館,神戸市中央区浜辺通6-3-16　関西国際文化センター3Ｆ,,
kokoron,尼崎信用金庫　世界の貯金箱博物館,尼崎市西本町北通3-93,,
kokoron,コヤノ美術館・西脇館,兵庫県西脇市市原町139,,
kokoron,コープこうべ協同学苑史料館,	〒673-0592　兵庫県三木市志染町青山7丁目1-4,,
kokoron,多可町立杉原紙研究所,〒679-1322　兵庫県多可郡多可町加美区鳥羽768-46,,
kokoron,姫路市宿泊型児童館「星の子館」,〒671-2222 兵庫県姫路市青山1470-24,,
kokoron,名古山霊苑仏舎利塔,〒670-0051　兵庫県姫路市名古山町14-1,,
kokoron,たつの市立埋蔵文化財センター,兵庫県たつの市新宮町宮内16 新宮総合支所内,,
kokoron,赤穂市立美術工芸館田淵記念館,〒678-0215 赤穂市御崎314-10,,
kokoron,赤穂市立有年考古館・有年民俗資料館,〒678-1181　兵庫県赤穂市有年楢原1164番地1,,
kokoron,大石神社義士史料館,赤穂市上仮屋131-7,,
kokoron,上郡町郷土資料館,678-1231　兵庫県赤穂郡上郡町上郡500番地５,,
kokoron,佐用町立平福郷土館,〒679-5331　佐用町平福５９４,,
kokoron,上月歴史資料館,〒679-5523　佐用町上月３７３,,
kokoron,豊岡市立美術館－伊藤清永記念館－,〒668-0214　兵庫県豊岡市出石町内町98,,
kokoron,豊岡市立植村直巳冒険館,〒669-5391 兵庫県豊岡市日高町伊府785,,
kokoron,豊岡市立いずし古代学習館,豊岡市出石町袴狭380-1,,
kokoron,豊岡市立日本・モンゴル民族博物館,〒668-0345　兵庫県豊岡市但東町中山711,,
kokoron,豊岡市立城崎文芸館,豊岡市城崎町湯島357-1,,
kokoron,豊岡市立出石家老屋敷,〒668-0214 兵庫県豊岡市出石町内町98番地の9,35.461833,134.872861
kokoron,豊岡市立出石史料館,豊岡市日高町祢布808,,
kokoron,豊岡市立出石明治館,豊岡市出石町魚屋50番地,,
kokoron,豊岡市立竹野北前館（資料展示室）,兵庫県豊岡市竹野町竹野50-12,,
kokoron,豊岡市立歴史博物館,〒669-5305 兵庫県豊岡市日高町祢布808,,
kokoron,豊岡市立出石永楽館,〒668-0234 兵庫県豊岡市出石町柳17-2,,
kokoron,玄武洞ミュージアム,〒668-0801 兵庫県豊岡市赤石1362,,
kokoron,養父市立山田風太郎記念館,〒667-1105 兵庫県養父市関宮605-1,,
kokoron,養父市立上垣守国養蚕記念館,兵庫県養父市大屋町蔵垣246-2,,
kokoron,あゆ公園　魚の王国,〒667－0315 兵庫県養父市大屋町加保５８２,,
kokoron,妙見山資料宝物館,養父市八鹿町石原450 日光院内,,
kokoron,朝来市和田山郷土歴史館,朝来市和田山町寺内123番地,,
kokoron,朝来市朝来歴史民俗資料館,〒679-3423 兵庫県朝来市多々良木724,,
kokoron,ムーセハウス写真館,朝来市佐嚢1826番地の1,,
kokoron,朝来市立埋蔵文化財センター「古代あさご館」,〒669-5153　朝来市山東町大月91番地2,,
kokoron,あさご芸術の森美術館－淀井敏夫記念館－,〒679-3423 兵庫県朝来市多々良木739-3,35.2385,134.829917
kokoron,香美町立村岡民俗資料館「まほろば」,香美町村岡区村岡２３２４－１,,
kokoron,おもしろ昆虫化石館,兵庫県美方郡新温泉町千谷850,,
kokoron,丹波伝統工芸公園・立杭陶の郷,〒669-2135 兵庫県篠山市今田町上立杭3,,
kokoron,丹波市立青垣いきものふれあいの里,〒669-3892 兵庫県丹波市青垣町佐治114番地,,
kokoron,丹波市立丹波布伝承館,　丹波市青垣町西芦田541－1（道の駅あおがき内）,,
kokoron,南あわじ市淡路人形浄瑠璃資料館,〒656-0475 南あわじ市市三条880（三原図書館2階）,,
kokoron,うずの丘大鳴門橋記念館　うずしお科学館,〒656-0503　兵庫県南あわじ市福良丙936-3,,
kokoron,淡路市北淡歴史民俗資料館,淡路市浅野南240,,
